CCSDS_OMM_VERS = 2.0
CREATION_DATE  = 
ORIGINATOR     = 

OBJECT_NAME    = STARLINK-35725
OBJECT_ID      = 2026-016E
CENTER_NAME    = EARTH
REF_FRAME      = TEME
TIME_SYSTEM    = UTC
MEAN_ELEMENT_THEORY = SGP/SGP4

EPOCH          = 2026-02-17T10:46:36.267168
MEAN_MOTION    = 15.75220450
ECCENTRICITY   = .0001402
INCLINATION    = 97.2835
RA_OF_ASC_NODE = 107.8845
ARG_OF_PERICENTER = 62.8045
MEAN_ANOMALY   = 297.3363

EPHEMERIS_TYPE = 0
CLASSIFICATION_TYPE = U
NORAD_CAT_ID   = 67565
ELEMENT_SET_NO = 999
REV_AT_EPOCH   = 361
BSTAR          = .79148E-3
MEAN_MOTION_DOT = .119752E-2
MEAN_MOTION_DDOT = 0

CCSDS_OMM_VERS = 2.0
CREATION_DATE  = 
ORIGINATOR     = 

OBJECT_NAME    = STARLINK-36394
OBJECT_ID      = 2026-016F
CENTER_NAME    = EARTH
REF_FRAME      = TEME
TIME_SYSTEM    = UTC
MEAN_ELEMENT_THEORY = SGP/SGP4

EPOCH          = 2026-02-17T10:49:09.104448
MEAN_MOTION    = 15.75214714
ECCENTRICITY   = .0001269
INCLINATION    = 97.2839
RA_OF_ASC_NODE = 107.8790
ARG_OF_PERICENTER = 61.4591
MEAN_ANOMALY   = 298.6802

EPHEMERIS_TYPE = 0
CLASSIFICATION_TYPE = U
NORAD_CAT_ID   = 67566
ELEMENT_SET_NO = 999
REV_AT_EPOCH   = 361
BSTAR          = .10603E-2
MEAN_MOTION_DOT = .16122E-2
MEAN_MOTION_DDOT = 0

CCSDS_OMM_VERS = 2.0
CREATION_DATE  = 
ORIGINATOR     = 

OBJECT_NAME    = STARLINK-36352
OBJECT_ID      = 2026-016G
CENTER_NAME    = EARTH
REF_FRAME      = TEME
TIME_SYSTEM    = UTC
MEAN_ELEMENT_THEORY = SGP/SGP4

EPOCH          = 2026-02-17T10:18:38.070720
MEAN_MOTION    = 15.80891913
ECCENTRICITY   = .0002804
INCLINATION    = 97.2831
RA_OF_ASC_NODE = 107.9082
ARG_OF_PERICENTER = 127.2462
MEAN_ANOMALY   = 232.9062

EPHEMERIS_TYPE = 0
CLASSIFICATION_TYPE = U
NORAD_CAT_ID   = 67567
ELEMENT_SET_NO = 999
REV_AT_EPOCH   = 361
BSTAR          = .97388E-3
MEAN_MOTION_DOT = .191231E-2
MEAN_MOTION_DDOT = 0

CCSDS_OMM_VERS = 2.0
CREATION_DATE  = 
ORIGINATOR     = 

OBJECT_NAME    = STARLINK-36435
OBJECT_ID      = 2026-016H
CENTER_NAME    = EARTH
REF_FRAME      = TEME
TIME_SYSTEM    = UTC
MEAN_ELEMENT_THEORY = SGP/SGP4

EPOCH          = 2026-02-17T07:13:05.124864
MEAN_MOTION    = 15.80888012
ECCENTRICITY   = .0000283
INCLINATION    = 97.2837
RA_OF_ASC_NODE = 107.7769
ARG_OF_PERICENTER = 296.6154
MEAN_ANOMALY   = 63.5085

EPHEMERIS_TYPE = 0
CLASSIFICATION_TYPE = U
NORAD_CAT_ID   = 67568
ELEMENT_SET_NO = 999
REV_AT_EPOCH   = 359
BSTAR          = .10783E-2
MEAN_MOTION_DOT = .21221E-2
MEAN_MOTION_DDOT = 0

CCSDS_OMM_VERS = 2.0
CREATION_DATE  = 
ORIGINATOR     = 

OBJECT_NAME    = STARLINK-36575
OBJECT_ID      = 2026-016J
CENTER_NAME    = EARTH
REF_FRAME      = TEME
TIME_SYSTEM    = UTC
MEAN_ELEMENT_THEORY = SGP/SGP4

EPOCH          = 2026-02-17T10:13:39.689184
MEAN_MOTION    = 15.80841774
ECCENTRICITY   = .0000928
INCLINATION    = 97.2824
RA_OF_ASC_NODE = 107.9160
ARG_OF_PERICENTER = 39.3046
MEAN_ANOMALY   = 320.8289

EPHEMERIS_TYPE = 0
CLASSIFICATION_TYPE = U
NORAD_CAT_ID   = 67569
ELEMENT_SET_NO = 999
REV_AT_EPOCH   = 361
BSTAR          = .88566E-3
MEAN_MOTION_DOT = .173114E-2
MEAN_MOTION_DDOT = 0

CCSDS_OMM_VERS = 2.0
CREATION_DATE  = 
ORIGINATOR     = 

OBJECT_NAME    = STARLINK-36562
OBJECT_ID      = 2026-016K
CENTER_NAME    = EARTH
REF_FRAME      = TEME
TIME_SYSTEM    = UTC
MEAN_ELEMENT_THEORY = SGP/SGP4

EPOCH          = 2026-02-17T07:10:02.046720
MEAN_MOTION    = 15.80903911
ECCENTRICITY   = .0001721
INCLINATION    = 97.2826
RA_OF_ASC_NODE = 107.7831
ARG_OF_PERICENTER = 79.3998
MEAN_ANOMALY   = 280.7464

EPHEMERIS_TYPE = 0
CLASSIFICATION_TYPE = U
NORAD_CAT_ID   = 67570
ELEMENT_SET_NO = 999
REV_AT_EPOCH   = 359
BSTAR          = .12791E-2
MEAN_MOTION_DOT = .253121E-2
MEAN_MOTION_DDOT = 0

CCSDS_OMM_VERS = 2.0
CREATION_DATE  = 
ORIGINATOR     = 

OBJECT_NAME    = STARLINK-36578
OBJECT_ID      = 2026-016L
CENTER_NAME    = EARTH
REF_FRAME      = TEME
TIME_SYSTEM    = UTC
MEAN_ELEMENT_THEORY = SGP/SGP4

EPOCH          = 2026-02-17T10:52:12.005472
MEAN_MOTION    = 15.75240873
ECCENTRICITY   = .000082
INCLINATION    = 97.2838
RA_OF_ASC_NODE = 107.8782
ARG_OF_PERICENTER = 67.5394
MEAN_ANOMALY   = 292.5958

EPHEMERIS_TYPE = 0
CLASSIFICATION_TYPE = U
NORAD_CAT_ID   = 67571
ELEMENT_SET_NO = 999
REV_AT_EPOCH   = 361
BSTAR          = .17033E-2
MEAN_MOTION_DOT = .262478E-2
MEAN_MOTION_DDOT = 0

CCSDS_OMM_VERS = 2.0
CREATION_DATE  = 
ORIGINATOR     = 

OBJECT_NAME    = STARLINK-36350
OBJECT_ID      = 2026-016M
CENTER_NAME    = EARTH
REF_FRAME      = TEME
TIME_SYSTEM    = UTC
MEAN_ELEMENT_THEORY = SGP/SGP4

EPOCH          = 2026-02-17T07:38:03.305184
MEAN_MOTION    = 15.75202261
ECCENTRICITY   = .0001648
INCLINATION    = 97.2838
RA_OF_ASC_NODE = 107.7540
ARG_OF_PERICENTER = 95.3932
MEAN_ANOMALY   = 264.7521

EPHEMERIS_TYPE = 0
CLASSIFICATION_TYPE = U
NORAD_CAT_ID   = 67572
ELEMENT_SET_NO = 999
REV_AT_EPOCH   = 359
BSTAR          = .63514E-3
MEAN_MOTION_DOT = .95726E-3
MEAN_MOTION_DDOT = 0

CCSDS_OMM_VERS = 2.0
CREATION_DATE  = 
ORIGINATOR     = 

OBJECT_NAME    = STARLINK-36588
OBJECT_ID      = 2026-016N
CENTER_NAME    = EARTH
REF_FRAME      = TEME
TIME_SYSTEM    = UTC
MEAN_ELEMENT_THEORY = SGP/SGP4

EPOCH          = 2026-02-17T10:44:04.128000
MEAN_MOTION    = 15.75230972
ECCENTRICITY   = .0001167
INCLINATION    = 97.2833
RA_OF_ASC_NODE = 107.8857
ARG_OF_PERICENTER = 66.1840
MEAN_ANOMALY   = 293.9547

EPHEMERIS_TYPE = 0
CLASSIFICATION_TYPE = U
NORAD_CAT_ID   = 67573
ELEMENT_SET_NO = 999
REV_AT_EPOCH   = 361
BSTAR          = .13441E-2
MEAN_MOTION_DOT = .205614E-2
MEAN_MOTION_DDOT = 0

CCSDS_OMM_VERS = 2.0
CREATION_DATE  = 
ORIGINATOR     = 

OBJECT_NAME    = STARLINK-36594
OBJECT_ID      = 2026-016P
CENTER_NAME    = EARTH
REF_FRAME      = TEME
TIME_SYSTEM    = UTC
MEAN_ELEMENT_THEORY = SGP/SGP4

EPOCH          = 2026-02-17T08:34:24.372192
MEAN_MOTION    = 15.80857479
ECCENTRICITY   = .0001285
INCLINATION    = 97.2834
RA_OF_ASC_NODE = 107.8550
ARG_OF_PERICENTER = 26.9374
MEAN_ANOMALY   = 333.1961

EPHEMERIS_TYPE = 0
CLASSIFICATION_TYPE = U
NORAD_CAT_ID   = 67574
ELEMENT_SET_NO = 999
REV_AT_EPOCH   = 360
BSTAR          = .82976E-3
MEAN_MOTION_DOT = .16209E-2
MEAN_MOTION_DDOT = 0

CCSDS_OMM_VERS = 2.0
CREATION_DATE  = 
ORIGINATOR     = 

OBJECT_NAME    = STARLINK-36400
OBJECT_ID      = 2026-016Q
CENTER_NAME    = EARTH
REF_FRAME      = TEME
TIME_SYSTEM    = UTC
MEAN_ELEMENT_THEORY = SGP/SGP4

EPOCH          = 2026-02-17T12:00:01.999296
MEAN_MOTION    = 15.75106946
ECCENTRICITY   = .0001286
INCLINATION    = 97.2841
RA_OF_ASC_NODE = 107.9838
ARG_OF_PERICENTER = 83.6615
MEAN_ANOMALY   = 315.4508

EPHEMERIS_TYPE = 0
CLASSIFICATION_TYPE = U
NORAD_CAT_ID   = 67575
ELEMENT_SET_NO = 999
REV_AT_EPOCH   = 474
BSTAR          = .58443E-3
MEAN_MOTION_DOT = .87625E-3
MEAN_MOTION_DDOT = 0

CCSDS_OMM_VERS = 2.0
CREATION_DATE  = 
ORIGINATOR     = 

OBJECT_NAME    = STARLINK-36591
OBJECT_ID      = 2026-016R
CENTER_NAME    = EARTH
REF_FRAME      = TEME
TIME_SYSTEM    = UTC
MEAN_ELEMENT_THEORY = SGP/SGP4

EPOCH          = 2026-02-17T11:34:14.378304
MEAN_MOTION    = 15.79367524
ECCENTRICITY   = .0002335
INCLINATION    = 97.2833
RA_OF_ASC_NODE = 107.9914
ARG_OF_PERICENTER = 355.1312
MEAN_ANOMALY   = 4.9933

EPHEMERIS_TYPE = 0
CLASSIFICATION_TYPE = U
NORAD_CAT_ID   = 67576
ELEMENT_SET_NO = 999
REV_AT_EPOCH   = 362
BSTAR          = -.27147E-2
MEAN_MOTION_DOT = -.462175E-2
MEAN_MOTION_DDOT = 0

