STARLINK-35725          
1 67565U 26016E   26048.44903087  .00119752  00000+0  79148-3 0  9995
2 67565  97.2835 107.8845 0001402  62.8045 297.3363 15.75220450  3614
STARLINK-36394          
1 67566U 26016F   26048.45079982  .00161220  00000+0  10603-2 0  9992
2 67566  97.2839 107.8790 0001269  61.4591 298.6802 15.75214714  3618
STARLINK-36352          
1 67567U 26016G   26048.42960730  .00191231  00000+0  97388-3 0  9991
2 67567  97.2831 107.9082 0002804 127.2462 232.9062 15.80891913  3617
STARLINK-36435          
1 67568U 26016H   26048.30075376  .00212210  00000+0  10783-2 0  9996
2 67568  97.2837 107.7769 0000283 296.6154  63.5085 15.80888012  3598
STARLINK-36575          
1 67569U 26016J   26048.42615381  .00173114  00000+0  88566-3 0  9990
2 67569  97.2824 107.9160 0000928  39.3046 320.8289 15.80841774  3612
STARLINK-36562          
1 67570U 26016K   26048.29863480  .00253121  00000+0  12791-2 0  9995
2 67570  97.2826 107.7831 0001721  79.3998 280.7464 15.80903911  3599
STARLINK-36578          
1 67571U 26016L   26048.45291673  .00262478  00000+0  17033-2 0  9992
2 67571  97.2838 107.8782 0000820  67.5394 292.5958 15.75240873  3614
STARLINK-36350          
1 67572U 26016M   26048.31809381  .00095726  00000+0  63514-3 0  9995
2 67572  97.2838 107.7540 0001648  95.3932 264.7521 15.75202261  3595
STARLINK-36588          
1 67573U 26016N   26048.44727000  .00205614  00000+0  13441-2 0  9999
2 67573  97.2833 107.8857 0001167  66.1840 293.9547 15.75230972  3618
STARLINK-36594          
1 67574U 26016P   26048.35722653  .00162090  00000+0  82976-3 0  9999
2 67574  97.2834 107.8550 0001285  26.9374 333.1961 15.80857479  3606
STARLINK-36400          
1 67575U 26016Q   26048.50002314  .00087625  00000+0  58443-3 0  9994
2 67575  97.2841 107.9838 0001286  83.6615 315.4508 15.75106946  4740
STARLINK-36591          
1 67576U 26016R   26048.48211086 -.00462175  00000+0 -27147-2 0  9995
2 67576  97.2833 107.9914 0002335 355.1312   4.9933 15.79367524  3627
